OBJECT_NAME,OBJECT_ID,EPOCH,MEAN_MOTION,ECCENTRICITY,INCLINATION,RA_OF_ASC_NODE,ARG_OF_PERICENTER,MEAN_ANOMALY,EPHEMERIS_TYPE,CLASSIFICATION_TYPE,NORAD_CAT_ID,ELEMENT_SET_NO,REV_AT_EPOCH,BSTAR,MEAN_MOTION_DOT,MEAN_MOTION_DDOT
GEOSCAN 3 (RS92S3),2025-155T,2026-07-15T22:11:35.825280,15.36325099,.00085939,97.4553,167.1591,85.4287,274.7938,0,U,64893,999,8526,.31201261E-3,.10984E-3,0
INNOSAT 3 (RS92S0),2025-155U,2026-07-15T22:36:29.971584,15.45856164,.00082367,97.4498,169.1730,88.7893,271.4300,0,U,64894,999,8540,.52467816E-3,.25456E-3,0
KNACKSAT-2,1998-067XZ,2026-07-15T21:33:33.429312,15.62452745,.00079557,51.6272,149.7820,330.4506,29.6038,0,U,67683,999,2476,.37935829E-3,.34031E-3,0
