GEOSCAN 3 (RS92S3)      
1 64893U 25155T   26196.92472020  .00010984  00000+0  31201-3 0  9999
2 64893  97.4553 167.1591 0008593  85.4287 274.7938 15.36325099 85268
INNOSAT 3 (RS92S0)      
1 64894U 25155U   26196.94201356  .00025456  00000+0  52468-3 0  9992
2 64894  97.4498 169.1730 0008236  88.7893 271.4300 15.45856164 85402
KNACKSAT-2              
1 67683U 98067XZ  26196.89830358  .00034031  00000+0  37936-3 0  9999
2 67683  51.6272 149.7820 0007955 330.4506  29.6038 15.62452745 24761
